{
  "Alabama": [
    {
      "name": "Gems Club",
      "city": "Birmingham",
      "state": "AL",
      "zip": "35203",
      "url": "https://www.gemsclub.co/"
    },
    {
      "name": "Seduction",
      "city": "Birmingham",
      "state": "AL",
      "zip": "35203",
      "url": "https://seductionparties.club/"
    },
    {
      "name": "Erotica",
      "city": "Huntsville",
      "state": "AL",
      "zip": "35801",
      "url": "https://eroticaparty.com/"
    }
  ],
  "Alaska": [],
  "Arizona": [
    {
      "name": "Vixxxins",
      "city": "Goodyear",
      "state": "AZ",
      "zip": "85338",
      "url": "https://www.vixxxins.info/"
    },
    {
      "name": "Club Encounters",
      "city": "Phoenix",
      "state": "AZ",
      "zip": "85004",
      "url": "https://clubencounters.com/"
    }
  ],
  "Arkansas": [
    {
      "name": "Arkansas Swinger",
      "city": "Rogers",
      "state": "AR",
      "zip": "72756",
      "url": "https://arkansasswinger.net/"
    }
  ],
  "California": [
    {
      "name": "SoCal BBW Swingers and Admirers",
      "city": "Anaheim",
      "state": "CA",
      "zip": "92801",
      "url": "https://bbwswingers.party/"
    },
    {
      "name": "Simply Living Silver",
      "city": "Bakersfield",
      "state": "CA",
      "zip": "93301",
      "url": "https://simplylivingsilver.com/"
    },
    {
      "name": "SoCal Circus",
      "city": "Huntington Beach",
      "state": "CA",
      "zip": "92648",
      "url": "https://socalcircusowner.wix.com/socalcircus"
    },
    {
      "name": "Club Joi",
      "city": "Los Angeles",
      "state": "CA",
      "zip": "90012",
      "url": "https://www.clubjoi.com/"
    },
    {
      "name": "Club Labyrinth",
      "city": "Los Angeles",
      "state": "CA",
      "zip": "90012",
      "url": "https://clublabyrinth.com/"
    },
    {
      "name": "Kinky Rabbit Club",
      "city": "Los Angeles",
      "state": "CA",
      "zip": "90012",
      "url": "https://knkyrabbitclub.com/"
    },
    {
      "name": "Noches Atrevidas",
      "city": "Los Angeles",
      "state": "CA",
      "zip": "90012",
      "url": "https://nochesatrevidaslosangeles.weebly.com/"
    },
    {
      "name": "Playmates Parties",
      "city": "Los Angeles",
      "state": "CA",
      "zip": "90012",
      "url": "https://swingersclubsreviews.org/"
    },
    {
      "name": "Tentaciones",
      "city": "Los Angeles",
      "state": "CA",
      "zip": "90012",
      "url": "https://www.tentacionesla.com/"
    },
    {
      "name": "Gary and Margaret's",
      "city": "Mira Loma",
      "state": "CA",
      "zip": "91752",
      "url": "https://garyandmargarets.org/"
    },
    {
      "name": "Exotic Dreams Resort",
      "city": "Palm Springs",
      "state": "CA",
      "zip": "92262",
      "url": "https://www.edrhotel.com/"
    },
    {
      "name": "Sea Mountain Nude Resort and Lifestyle Hotel",
      "city": "Palm Springs",
      "state": "CA",
      "zip": "92262",
      "url": "https://www.seamountainranch.com/"
    },
    {
      "name": "Bronze Party",
      "city": "Palo Alto",
      "state": "CA",
      "zip": "94301",
      "url": "https://bronzeparty.com/"
    },
    {
      "name": "Gemini Social Club",
      "city": "Pomona",
      "state": "CA",
      "zip": "91766",
      "url": "https://geminisocialclub.wordpress.com/"
    },
    {
      "name": "The Cougars Den",
      "city": "Quartz Hill",
      "state": "CA",
      "zip": "93536",
      "url": "https://www.thecougarsden.info/"
    },
    {
      "name": "Allures",
      "city": "Sacramento",
      "state": "CA",
      "zip": "95814",
      "url": "https://www.allureslifestyle.com/"
    },
    {
      "name": "The Suite Life",
      "city": "Sacramento",
      "state": "CA",
      "zip": "95814",
      "url": "https://thesuitelifeplatinum.com/"
    },
    {
      "name": "The Mountainside Acres Resort",
      "city": "San Bernardino",
      "state": "CA",
      "zip": "92401",
      "url": "https://mountainsideacresresort.com/"
    },
    {
      "name": "Club Safeword",
      "city": "San Diego",
      "state": "CA",
      "zip": "92101",
      "url": "https://www.clubsafeword.com/"
    },
    {
      "name": "House of Black",
      "city": "San Diego",
      "state": "CA",
      "zip": "92101",
      "url": "https://www.houseofblack.com/"
    },
    {
      "name": "Thads",
      "city": "San Diego",
      "state": "CA",
      "zip": "92101",
      "url": "https://www.thads.com/"
    },
    {
      "name": "247Fetish",
      "city": "San Francisco",
      "state": "CA",
      "zip": "94103",
      "url": "https://247fetish.net/"
    },
    {
      "name": "Club Kiss",
      "city": "San Francisco",
      "state": "CA",
      "zip": "94103",
      "url": "https://www.clubkiss.us/"
    },
    {
      "name": "Twist",
      "city": "San Francisco",
      "state": "CA",
      "zip": "94103",
      "url": "https://www.twist-sf.com/"
    },
    {
      "name": "Tangerine's Dream",
      "city": "San Jose",
      "state": "CA",
      "zip": "95113",
      "url": "https://tangerinesdream.com/"
    },
    {
      "name": "Vixen",
      "city": "Van Nuys",
      "state": "CA",
      "zip": "91401",
      "url": "https://www.vixenclub.com/"
    }
  ],
  "Colorado": [
    {
      "name": "Mon Chalet",
      "city": "Aurora",
      "state": "CO",
      "zip": "80012",
      "url": "https://mon-chalet.com/"
    },
    {
      "name": "Voodoo Leatherworks",
      "city": "Colorado Springs",
      "state": "CO",
      "zip": "80903",
      "url": "https://www.voodooleatherworks.com/"
    },
    {
      "name": "Rocky Mountain Parties",
      "city": "Denver",
      "state": "CO",
      "zip": "80202",
      "url": "https://www.rmpfun.com/"
    },
    {
      "name": "Scarlet Ranch",
      "city": "Littleton",
      "state": "CO",
      "zip": "80120",
      "url": "https://www.scarletranch.com/"
    }
  ],
  "Connecticut": [
    {
      "name": "Leisure Time Club",
      "city": "Hartford",
      "state": "CT",
      "zip": "06103",
      "url": "https://www.leisuretime-club.com/"
    },
    {
      "name": "Wicked Fun",
      "city": "Terryville",
      "state": "CT",
      "zip": "06786",
      "url": "https://members.wickedfunclub.com/"
    }
  ],
  "Delaware": [],
  "District of Columbia": [
    {
      "name": "Shadows",
      "city": "Washington",
      "state": "DC",
      "zip": "20001",
      "url": "https://www.shadowslove.com/"
    }
  ],
  "Florida": [
    {
      "name": "Club 3X",
      "city": "Cocoa",
      "state": "FL",
      "zip": "32922",
      "url": "https://club3x.org/"
    },
    {
      "name": "Minglers Club",
      "city": "Daytona Beach",
      "state": "FL",
      "zip": "32114",
      "url": "https://www.minglerssocialclub.com/"
    },
    {
      "name": "Doodles Deviants",
      "city": "East Lake Weir",
      "state": "FL",
      "zip": "32134",
      "url": "https://www.doodlesdeviants.com/"
    },
    {
      "name": "Friction",
      "city": "Fort Lauderdale",
      "state": "FL",
      "zip": "33301",
      "url": "https://frictionparties.com/"
    },
    {
      "name": "Splash Takeovers",
      "city": "Fort Lauderdale",
      "state": "FL",
      "zip": "33301",
      "url": "https://www.splashtakeovers.com/"
    },
    {
      "name": "The Goodfellaz - Fort Lauderdale",
      "city": "Fort Lauderdale",
      "state": "FL",
      "zip": "33301",
      "url": ""
    },
    {
      "name": "Trapeze",
      "city": "Fort Lauderdale",
      "state": "FL",
      "zip": "33301",
      "url": "https://trapezeclubs.com/"
    },
    {
      "name": "Roof Top Resort",
      "city": "Hollywood",
      "state": "FL",
      "zip": "33019",
      "url": "https://www.rooftopresort.com/"
    },
    {
      "name": "Club Kink",
      "city": "Jacksonville",
      "state": "FL",
      "zip": "32202",
      "url": "http://www.clubkinkjax.com/"
    },
    {
      "name": "Club Uninhibited",
      "city": "Jacksonville",
      "state": "FL",
      "zip": "32202",
      "url": "https://clubuninhibited.wixsite.com/club-uninhibited"
    },
    {
      "name": "BBW Swing Kings",
      "city": "Kissimmee",
      "state": "FL",
      "zip": "34741",
      "url": "https://www.bskevents.com/"
    },
    {
      "name": "Secrets Hideaway",
      "city": "Kissimmee",
      "state": "FL",
      "zip": "34741",
      "url": "https://www.secretsfl.com/"
    },
    {
      "name": "The Florida Treehouse",
      "city": "Lakeland",
      "state": "FL",
      "zip": "33801",
      "url": "https://thefloridatreehouse.fun/"
    },
    {
      "name": "Caliente Club and Resort",
      "city": "Land O' Lakes",
      "state": "FL",
      "zip": "34639",
      "url": "https://calienteresorts.com/"
    },
    {
      "name": "Play at Paradise",
      "city": "Lutz",
      "state": "FL",
      "zip": "33549",
      "url": "https://paradiselakesresort.com/"
    },
    {
      "name": "Twisted Pineapple",
      "city": "Melbourne",
      "state": "FL",
      "zip": "32901",
      "url": "https://thetwistedpineapple.wixsite.com/twistedpineapple"
    },
    {
      "name": "Miami Velvet",
      "city": "Miami",
      "state": "FL",
      "zip": "33132",
      "url": "https://miamivelvet.com/site/"
    },
    {
      "name": "Tampa Bay Lifestylers",
      "city": "Palm Harbor",
      "state": "FL",
      "zip": "34683",
      "url": "https://www.tampabaylifestylers.com/"
    },
    {
      "name": "Hotspot",
      "city": "Pierson",
      "state": "FL",
      "zip": "32180",
      "url": "https://www.banginevents.com/"
    },
    {
      "name": "SLS Radio",
      "city": "Plantation",
      "state": "FL",
      "zip": "33324",
      "url": "https://www.slsradio.me/"
    },
    {
      "name": "Eyz Wide Shut",
      "city": "Tampa",
      "state": "FL",
      "zip": "33602",
      "url": "https://eyzwideshut.com/"
    },
    {
      "name": "The Goodfellaz - Tampa",
      "city": "Tampa",
      "state": "FL",
      "zip": "33602",
      "url": ""
    }
  ],
  "Georgia": [
    {
      "name": "Friction",
      "city": "Atlanta",
      "state": "GA",
      "zip": "30303",
      "url": "https://frictionparties.com/"
    },
    {
      "name": "The Loft",
      "city": "Atlanta",
      "state": "GA",
      "zip": "30303",
      "url": "https://www.swingingatlanta.com/"
    },
    {
      "name": "Trapeze",
      "city": "Atlanta",
      "state": "GA",
      "zip": "30303",
      "url": "https://trapezeclubs.com/"
    },
    {
      "name": "Mountain Creek Grove",
      "city": "Cleveland",
      "state": "GA",
      "zip": "30528",
      "url": "https://mountaincreekgrove.net/"
    }
  ],
  "Hawaii": [
    {
      "name": "Hawaii Swingers",
      "city": "Honolulu",
      "state": "HI",
      "zip": "96813",
      "url": "https://hawaiiswingers.net/"
    }
  ],
  "Idaho": [
    {
      "name": "The Warehouse",
      "city": "Boise",
      "state": "ID",
      "zip": "83702",
      "url": "https://the-warehouseboise.com/"
    },
    {
      "name": "The Idaho White Rose",
      "city": "Post Falls",
      "state": "ID",
      "zip": "83854",
      "url": "https://idahowhiterose.com/"
    }
  ],
  "Illinois": [
    {
      "name": "Friends Night Out",
      "city": "Aurora",
      "state": "IL",
      "zip": "60505",
      "url": "https://www.friendsnightout.com/"
    },
    {
      "name": "Invite Only",
      "city": "Chicago",
      "state": "IL",
      "zip": "60601",
      "url": "https://www.inviteonlyparties.com/"
    },
    {
      "name": "Young Couples Party",
      "city": "Chicago",
      "state": "IL",
      "zip": "60601",
      "url": "https://youngcouplesparty.com/"
    },
    {
      "name": "CC's House Parties",
      "city": "Country Club Hills",
      "state": "IL",
      "zip": "60478",
      "url": "https://www.cchouseparty.com/"
    },
    {
      "name": "The Lux",
      "city": "Crete",
      "state": "IL",
      "zip": "60417",
      "url": "https://www.thelux.net/"
    },
    {
      "name": "JR's Place",
      "city": "Loves Park",
      "state": "IL",
      "zip": "61111",
      "url": "http://www.jrsplaceinlovespark.com/"
    },
    {
      "name": "Couples Playhouse",
      "city": "Oswego",
      "state": "IL",
      "zip": "60543",
      "url": "http://maxnevascouplesplayhouse.com/"
    }
  ],
  "Indiana": [
    {
      "name": "The Champagne Club",
      "city": "Fort Wayne",
      "state": "IN",
      "zip": "46802",
      "url": "https://playchampagne.com/"
    },
    {
      "name": "Club Meet4More",
      "city": "Hammond",
      "state": "IN",
      "zip": "46320",
      "url": "https://clubmeet4more.com/"
    },
    {
      "name": "Clubhouse 2050",
      "city": "Indianapolis",
      "state": "IN",
      "zip": "46204",
      "url": "https://clubhouse2050.org/"
    },
    {
      "name": "Twizted Dezires",
      "city": "Indianapolis",
      "state": "IN",
      "zip": "46204",
      "url": ""
    },
    {
      "name": "Sun Aura Resort",
      "city": "Lake Village",
      "state": "IN",
      "zip": "46349",
      "url": "https://sunauraresort.net/"
    },
    {
      "name": "Club NV",
      "city": "Muncie",
      "state": "IN",
      "zip": "47303",
      "url": "https://www.clubnv.net/"
    },
    {
      "name": "Timberhouse",
      "city": "Sheridan",
      "state": "IN",
      "zip": "46069",
      "url": "https://timberhouseparties.com/"
    }
  ],
  "Iowa": [
    {
      "name": "Club G",
      "city": "Des Moines",
      "state": "IA",
      "zip": "50309",
      "url": "https://desmoineslifestylesclub.com/"
    }
  ],
  "Kansas": [],
  "Kentucky": [
    {
      "name": "Tempted",
      "city": "Louisville",
      "state": "KY",
      "zip": "40202",
      "url": "https://www.clubtempted.com/"
    },
    {
      "name": "The Sandbox",
      "city": "Sparta",
      "state": "KY",
      "zip": "41086",
      "url": "https://thesandboxclub.com/"
    }
  ],
  "Louisiana": [
    {
      "name": "Colette",
      "city": "New Orleans",
      "state": "LA",
      "zip": "70130",
      "url": "https://www.coletteclubs.com/"
    }
  ],
  "Maine": [
    {
      "name": "Maine Swingers Club",
      "city": "Houlton",
      "state": "ME",
      "zip": "04730",
      "url": "https://maineswingers.net/"
    }
  ],
  "Maryland": [
    {
      "name": "Black Ring Swing",
      "city": "Baltimore",
      "state": "MD",
      "zip": "21201",
      "url": "https://www.blackringswing.com/"
    },
    {
      "name": "Tabu Social Club",
      "city": "Catonsville",
      "state": "MD",
      "zip": "21228",
      "url": "https://tabulife.com/"
    },
    {
      "name": "Shadows",
      "city": "Hyattsville",
      "state": "MD",
      "zip": "20782",
      "url": "https://www.shadowslove.com/"
    },
    {
      "name": "Friction",
      "city": "Linthicum",
      "state": "MD",
      "zip": "21090",
      "url": "https://frictionparties.com/"
    },
    {
      "name": "The Private Affair",
      "city": "Port Deposit",
      "state": "MD",
      "zip": "21904",
      "url": "http://www.theprivateaffair.com"
    },
    {
      "name": "Rhaven's Haven",
      "city": "Waldorf",
      "state": "MD",
      "zip": "20601",
      "url": "https://www.rhavenshaven.org/"
    },
    {
      "name": "Secret Diversion",
      "city": "Waldorf",
      "state": "MD",
      "zip": "20601",
      "url": "https://www.pleasure4themoment.com/"
    }
  ],
  "Massachusetts": [
    {
      "name": "Club 4Play",
      "city": "Chicopee",
      "state": "MA",
      "zip": "01013",
      "url": "https://www.club4playparties.com"
    },
    {
      "name": "Cherry Lane Nudist Resort",
      "city": "North Adams",
      "state": "MA",
      "zip": "01247",
      "url": "https://cherrylaneresort.com/"
    },
    {
      "name": "Club Sinz",
      "city": "North Shore",
      "state": "MA",
      "zip": "01950",
      "url": "https://www.clubsinz.com/"
    }
  ],
  "Michigan": [
    {
      "name": "The Wet Spot",
      "city": "Benton Harbor",
      "state": "MI",
      "zip": "49022",
      "url": "https://www.thewetspotparties.com/"
    },
    {
      "name": "Northaven Resort",
      "city": "Brooklyn",
      "state": "MI",
      "zip": "49230",
      "url": "https://cherrylaneresort.com/"
    },
    {
      "name": "Wild Walkers",
      "city": "Dearborn Heights",
      "state": "MI",
      "zip": "48127",
      "url": "https://www.wildwalkersclub.com/"
    },
    {
      "name": "Hidden Agenda",
      "city": "Detroit",
      "state": "MI",
      "zip": "48226",
      "url": "https://ahiddenagenda.com/"
    },
    {
      "name": "The Mixology Masquerade at the Manor",
      "city": "Detroit",
      "state": "MI",
      "zip": "48226",
      "url": "http://www.eroticforest.com/"
    },
    {
      "name": "Club Chameleon",
      "city": "Flint",
      "state": "MI",
      "zip": "48502",
      "url": "https://www.clubchameleonswingers.com/"
    },
    {
      "name": "Your Ali-Bi",
      "city": "Flint",
      "state": "MI",
      "zip": "48502",
      "url": "https://sites.google.com/view/your-ali-bi"
    },
    {
      "name": "Club Iniquity",
      "city": "Gaylord",
      "state": "MI",
      "zip": "49735",
      "url": "https://clubiniquitymi.com/"
    },
    {
      "name": "616 GR",
      "city": "Grand Rapids",
      "state": "MI",
      "zip": "49503",
      "url": "https://616gr.com/"
    },
    {
      "name": "Ace / Angel Entertainment",
      "city": "Livonia",
      "state": "MI",
      "zip": "48150",
      "url": "https://www.angelentertainment.club/"
    },
    {
      "name": "Cherry Lane",
      "city": "North Adams",
      "state": "MI",
      "zip": "01247",
      "url": "https://cherrylaneresort.com/"
    }
  ],
  "Minnesota": [
    {
      "name": "Two Creeks Campground",
      "city": "Sandstone",
      "state": "MN",
      "zip": "55072",
      "url": "https://2creeks.com/"
    }
  ],
  "Mississippi": [
    {
      "name": "Close Encounters",
      "city": "Jackson",
      "state": "MS",
      "zip": "39201",
      "url": "http://www.close-encounters-club.com"
    }
  ],
  "Missouri": [
    {
      "name": "The Fantasy Lounge",
      "city": "Kansas City",
      "state": "MO",
      "zip": "64106",
      "url": "https://www.thefantasylounge.com/"
    }
  ],
  "Montana": [],
  "Nebraska": [
    {
      "name": "Forbidden",
      "city": "Omaha",
      "state": "NE",
      "zip": "68102",
      "url": "https://forbiddeno.com/"
    }
  ],
  "Nevada": [
    {
      "name": "Club 5150",
      "city": "Las Vegas",
      "state": "NV",
      "zip": "89109",
      "url": "https://www.club5150.lifestyle/"
    },
    {
      "name": "Flirts LV",
      "city": "Las Vegas",
      "state": "NV",
      "zip": "89109",
      "url": "https://www.flirtslv.com/"
    },
    {
      "name": "Playhouse LV",
      "city": "Las Vegas",
      "state": "NV",
      "zip": "89109",
      "url": "https://www.playhouselv.com/"
    },
    {
      "name": "Purrfect LV Swinger Parties",
      "city": "Las Vegas",
      "state": "NV",
      "zip": "89109",
      "url": "https://members.purrfectlv.com/"
    },
    {
      "name": "Red Rooster",
      "city": "Las Vegas",
      "state": "NV",
      "zip": "89109",
      "url": "https://redrooster.vegas/"
    },
    {
      "name": "Sea Mountain (listed)",
      "city": "Las Vegas",
      "state": "NV",
      "zip": "89109",
      "url": "https://www.seamountainranch.com/"
    },
    {
      "name": "Swinger Circle",
      "city": "Las Vegas",
      "state": "NV",
      "zip": "89109",
      "url": "https://www.swingerscircle.com/"
    },
    {
      "name": "The Green Door",
      "city": "Las Vegas",
      "state": "NV",
      "zip": "89109",
      "url": "https://greendoorlasvegas.com/"
    },
    {
      "name": "Whisper",
      "city": "Las Vegas",
      "state": "NV",
      "zip": "89109",
      "url": "https://www.whispersvegas.com/"
    },
    {
      "name": "PK Social",
      "city": "Reno",
      "state": "NV",
      "zip": "89501",
      "url": "https://pksocialclub.org/"
    }
  ],
  "New Hampshire": [],
  "New Jersey": [
    {
      "name": "Saints and Sinners",
      "city": "Atlantic City",
      "state": "NJ",
      "zip": "08401",
      "url": "https://saintsandsinnersclubs.com/"
    },
    {
      "name": "Intimate Parties Group",
      "city": "Glen Gardner",
      "state": "NJ",
      "zip": "08826",
      "url": "https://intimatepartiesgroup.com/"
    },
    {
      "name": "Karizma Social Club",
      "city": "Glen Gardner",
      "state": "NJ",
      "zip": "08826",
      "url": "https://karizmasocialclub.com/"
    },
    {
      "name": "Curvy and Fabulous Events",
      "city": "Hazlet",
      "state": "NJ",
      "zip": "07730",
      "url": "https://curvyandfabulous.com/"
    },
    {
      "name": "Silver and Spicy",
      "city": "Middleton",
      "state": "NJ",
      "zip": "07748",
      "url": "https://silverandspicy.com/"
    },
    {
      "name": "Samantha's Stable",
      "city": "Monroeville",
      "state": "NJ",
      "zip": "08343",
      "url": "https://www.samanthasstable.com/"
    }
  ],
  "New Mexico": [
    {
      "name": "Spectrum",
      "city": "Albuquerque",
      "state": "NM",
      "zip": "87102",
      "url": "http://www.spectrumparties.com"
    }
  ],
  "New York": [
    {
      "name": "SatinSheetDreams",
      "city": "Albany",
      "state": "NY",
      "zip": "12207",
      "url": "https://satinsheetdreams.com/"
    },
    {
      "name": "Caligula",
      "city": "Astoria",
      "state": "NY",
      "zip": "11102",
      "url": "https://www.caligulany.com/"
    },
    {
      "name": "My Frisky Business",
      "city": "Babylon",
      "state": "NY",
      "zip": "11702",
      "url": "http://www.myfriskybusiness.net"
    },
    {
      "name": "The People's Party",
      "city": "Babylon",
      "state": "NY",
      "zip": "11702",
      "url": "https://swing67.wixsite.com/thepeoplesparty"
    },
    {
      "name": "Vanilla Needs Chocolate",
      "city": "Garden City",
      "state": "NY",
      "zip": "11530",
      "url": "http://www.vnclifestyle.com/"
    },
    {
      "name": "Deviate Network",
      "city": "Kingston",
      "state": "NY",
      "zip": "12401",
      "url": "https://www.thedeviatenetwork.com/events"
    },
    {
      "name": "Badd Kitty Club",
      "city": "Liverpool",
      "state": "NY",
      "zip": "13088",
      "url": "http://www.baddkittyclub.com/"
    },
    {
      "name": "Syracuse Speakeasy",
      "city": "Liverpool",
      "state": "NY",
      "zip": "13088",
      "url": "https://syracusespeakeasy.com/"
    },
    {
      "name": "Mindbender Parties",
      "city": "Moriches",
      "state": "NY",
      "zip": "11955",
      "url": "https://www.mindbenderparties.com/"
    },
    {
      "name": "Victoria's Soiree",
      "city": "Newburgh",
      "state": "NY",
      "zip": "12550",
      "url": "https://victoriassoiree.my.canva.site/"
    },
    {
      "name": "CheckMate New York",
      "city": "New York",
      "state": "NY",
      "zip": "10001",
      "url": "https://www.checkmatenyc.com/"
    },
    {
      "name": "Club Labyrinth",
      "city": "New York",
      "state": "NY",
      "zip": "10001",
      "url": "https://clublabyrinth.com/"
    },
    {
      "name": "The Diamond Club NYC",
      "city": "New York",
      "state": "NY",
      "zip": "10001",
      "url": "https://thediamondclubnyc.com/"
    },
    {
      "name": "The Loft",
      "city": "New York",
      "state": "NY",
      "zip": "10001",
      "url": "https://theloftesl.com/"
    },
    {
      "name": "Medusa's Playhouse",
      "city": "West Babylon",
      "state": "NY",
      "zip": "11704",
      "url": "https://sharenationevents.com/"
    }
  ],
  "North Carolina": [
    {
      "name": "Carolina Friends",
      "city": "Clemmons",
      "state": "NC",
      "zip": "27012",
      "url": "https://carolinafriends.com/"
    },
    {
      "name": "You Know Where",
      "city": "Fayetteville",
      "state": "NC",
      "zip": "28301",
      "url": "https://www.youknowwherenc.com/"
    },
    {
      "name": "Club Red Door",
      "city": "Gastonia",
      "state": "NC",
      "zip": "28052",
      "url": "https://www.clubreddoor.com/"
    },
    {
      "name": "Club C3",
      "city": "New Bern",
      "state": "NC",
      "zip": "28560",
      "url": "https://clubc3.com/"
    },
    {
      "name": "Friction",
      "city": "Raleigh",
      "state": "NC",
      "zip": "27601",
      "url": "https://frictionparties.com/"
    },
    {
      "name": "The House",
      "city": "Raleigh",
      "state": "NC",
      "zip": "27601",
      "url": "https://iltephouse.com/"
    },
    {
      "name": "Ludus Social Club",
      "city": "Wilmington",
      "state": "NC",
      "zip": "28401",
      "url": "https://clubludus.co/"
    }
  ],
  "North Dakota": [],
  "Ohio": [
    {
      "name": "Club Eros",
      "city": "Cleveland",
      "state": "OH",
      "zip": "44114",
      "url": "https://clubludus.co/"
    },
    {
      "name": "Club Escape",
      "city": "Cleveland",
      "state": "OH",
      "zip": "44114",
      "url": "https://www.clubescapecleveland.com/"
    },
    {
      "name": "IntimateParties Group",
      "city": "Columbus",
      "state": "OH",
      "zip": "43215",
      "url": "https://intimatepartiesgroup.com/"
    },
    {
      "name": "Club Princeton",
      "city": "Columbus",
      "state": "OH",
      "zip": "43215",
      "url": "https://clubprinceton.com/"
    },
    {
      "name": "Ohana's Club",
      "city": "Columbus",
      "state": "OH",
      "zip": "43215",
      "url": "https://ohanas.club/"
    },
    {
      "name": "Play Champagne",
      "city": "Columbus",
      "state": "OH",
      "zip": "43215",
      "url": "https://www.playchampagne.com/"
    },
    {
      "name": "Club Flavor",
      "city": "Massillon",
      "state": "OH",
      "zip": "44646",
      "url": "https://www.clubflavorohio.com/"
    },
    {
      "name": "Club Sinday",
      "city": "Middletown",
      "state": "OH",
      "zip": "45042",
      "url": "https://www.clubsinday.com/"
    },
    {
      "name": "Club 440",
      "city": "Milford",
      "state": "OH",
      "zip": "45150",
      "url": "https://www.club440online.com/"
    },
    {
      "name": "Secret Desires of Ohio",
      "city": "Sandusky",
      "state": "OH",
      "zip": "44870",
      "url": "https://secretdesiresofohio.com/"
    },
    {
      "name": "Euphoria",
      "city": "Toledo",
      "state": "OH",
      "zip": "43604",
      "url": "https://www.toledoadultparties.com/"
    },
    {
      "name": "Explore",
      "city": "Valley View",
      "state": "OH",
      "zip": "44125",
      "url": "https://explore-events.com/"
    },
    {
      "name": "Yard Clubhouse",
      "city": "Youngstown",
      "state": "OH",
      "zip": "44503",
      "url": "https://trainyardclubhouse.com/"
    }
  ],
  "Oklahoma": [
    {
      "name": "Club Eden",
      "city": "Oklahoma City",
      "state": "OK",
      "zip": "73102",
      "url": "https://edenclubs.co"
    },
    {
      "name": "The Club",
      "city": "Oklahoma City",
      "state": "OK",
      "zip": "73102",
      "url": "https://www.theclubinokc.com/"
    }
  ],
  "Oregon": [
    {
      "name": "Club Privata",
      "city": "Portland",
      "state": "OR",
      "zip": "97205",
      "url": "https://www.clubprivata.com/"
    },
    {
      "name": "Sanctuary",
      "city": "Portland",
      "state": "OR",
      "zip": "97205",
      "url": "https://pdxsanctuary.com/"
    },
    {
      "name": "The Velvet Rope",
      "city": "Portland",
      "state": "OR",
      "zip": "97205",
      "url": "https://velvetropepdx.com/"
    }
  ],
  "Pennsylvania": [
    {
      "name": "Club Giggity",
      "city": "Allentown",
      "state": "PA",
      "zip": "18101",
      "url": "https://www.clubgiggity.com/"
    },
    {
      "name": "DJ's Island",
      "city": "Beaver Falls",
      "state": "PA",
      "zip": "15010",
      "url": "http://www.djsisland.com"
    },
    {
      "name": "Secret Pleasures",
      "city": "Emmaus",
      "state": "PA",
      "zip": "18049",
      "url": "http://www.secretpleasures.club/"
    },
    {
      "name": "TJ's Lasting Impressions",
      "city": "Newport",
      "state": "PA",
      "zip": "17074",
      "url": "https://tjslastingimpressions.com/"
    },
    {
      "name": "Friction",
      "city": "Philadelphia",
      "state": "PA",
      "zip": "19107",
      "url": "https://frictionparties.com/"
    },
    {
      "name": "Friction4Her",
      "city": "Philadelphia",
      "state": "PA",
      "zip": "19107",
      "url": "https://friction4her.com/"
    },
    {
      "name": "Saints and Sinners",
      "city": "Philadelphia",
      "state": "PA",
      "zip": "19107",
      "url": "https://www.saintsandsinnersclubs.com/"
    },
    {
      "name": "Sanger Soirees (Savage Soirees)",
      "city": "Philadelphia",
      "state": "PA",
      "zip": "19107",
      "url": "https://savagesoireeslifestyleevents.godaddysites.com/"
    },
    {
      "name": "Sinner's Paradise",
      "city": "Philadelphia",
      "state": "PA",
      "zip": "19107",
      "url": "https://sinnersparadise.weebly.com/"
    },
    {
      "name": "Body Shop",
      "city": "Pittsburgh",
      "state": "PA",
      "zip": "15222",
      "url": "https://bodyshopclubs.com/"
    },
    {
      "name": "Secret Sinsations",
      "city": "Pittsburgh",
      "state": "PA",
      "zip": "15222",
      "url": "http://www.secretsinsations.com/"
    },
    {
      "name": "The Korral",
      "city": "Spring Grove",
      "state": "PA",
      "zip": "17362",
      "url": "http://www.thekorral.com"
    },
    {
      "name": "Sugar and Spice",
      "city": "West Chester",
      "state": "PA",
      "zip": "19380",
      "url": "http://www.pssom.com/"
    },
    {
      "name": "Swing Out Socials",
      "city": "York",
      "state": "PA",
      "zip": "17401",
      "url": "http://www.swingoutsocials.com/"
    }
  ],
  "Rhode Island": [
    {
      "name": "Rhody Boats",
      "city": "Bristol",
      "state": "RI",
      "zip": "02809",
      "url": "https://www.rhodyboats.com/"
    },
    {
      "name": "Choice Social Club",
      "city": "Providence",
      "state": "RI",
      "zip": "02903",
      "url": "https://www.choicesocialclub.com/"
    },
    {
      "name": "Electricity Social Club",
      "city": "Providence",
      "state": "RI",
      "zip": "02903",
      "url": "https://www.electricitysocialclub.com/"
    },
    {
      "name": "Playground",
      "city": "Providence",
      "state": "RI",
      "zip": "02903",
      "url": "https://www.riplayground.net/"
    }
  ],
  "South Carolina": [
    {
      "name": "Foothills Club",
      "city": "Anderson",
      "state": "SC",
      "zip": "29621",
      "url": "https://thefoothillsclub.com/"
    },
    {
      "name": "Dalliance",
      "city": "Columbia",
      "state": "SC",
      "zip": "29201",
      "url": "https://clubdalliance.com/"
    },
    {
      "name": "Lifestyle Connections",
      "city": "Fort Mill",
      "state": "SC",
      "zip": "29715",
      "url": "http://www.lifestyleconnections.net/"
    },
    {
      "name": "The Melting Pot for Adult Fun",
      "city": "Greenville",
      "state": "SC",
      "zip": "29601",
      "url": "https://www.mp4af.com/"
    },
    {
      "name": "Lacey's Playhouse",
      "city": "Myrtle Beach",
      "state": "SC",
      "zip": "29572",
      "url": "https://laceysplayhouse.net/"
    }
  ],
  "South Dakota": [],
  "Tennessee": [
    {
      "name": "Pandora's Lifestyle Resort & Club",
      "city": "Crossville",
      "state": "TN",
      "zip": "38555",
      "url": "https://pandorasresort.com/"
    },
    {
      "name": "Elation",
      "city": "Goodlettsville",
      "state": "TN",
      "zip": "37072",
      "url": "https://www.elation.club/"
    },
    {
      "name": "Tennessee Temptations",
      "city": "Johnson City",
      "state": "TN",
      "zip": "37601",
      "url": "https://www.tntempt.com/"
    },
    {
      "name": "Eros",
      "city": "Knoxville",
      "state": "TN",
      "zip": "37902",
      "url": "http://www.erosknoxville.com"
    },
    {
      "name": "Friction",
      "city": "Knoxville",
      "state": "TN",
      "zip": "37902",
      "url": "https://www.frictionparties.com"
    },
    {
      "name": "Chemistry",
      "city": "Madison",
      "state": "TN",
      "zip": "37115",
      "url": "https://www.chemistrygold.com/"
    },
    {
      "name": "Genesis",
      "city": "Memphis",
      "state": "TN",
      "zip": "38103",
      "url": "https://club-genesis.com/"
    },
    {
      "name": "RedRoom",
      "city": "Nashville",
      "state": "TN",
      "zip": "37203",
      "url": ""
    },
    {
      "name": "Vibe",
      "city": "Nashville",
      "state": "TN",
      "zip": "37203",
      "url": "https://www.partiesbyvibe.com/"
    }
  ],
  "Texas": [
    {
      "name": "Colette - Austin",
      "city": "Austin",
      "state": "TX",
      "zip": "78701",
      "url": "https://www.coletteclubs.com/"
    },
    {
      "name": "Colette - Dallas",
      "city": "Dallas",
      "state": "TX",
      "zip": "75201",
      "url": "https://www.coletteclubs.com/"
    },
    {
      "name": "Playhouse DFW",
      "city": "Dallas",
      "state": "TX",
      "zip": "75201",
      "url": "https://playhousedfw.com/"
    },
    {
      "name": "Quiet Encounters",
      "city": "El Paso",
      "state": "TX",
      "zip": "79901",
      "url": "https://quietencounters2.com/"
    },
    {
      "name": "Club Eden - Fort Worth",
      "city": "Fort Worth",
      "state": "TX",
      "zip": "76102",
      "url": "https://edenclubs.co/"
    },
    {
      "name": "Krewe of Swingtown",
      "city": "Goodrich",
      "state": "TX",
      "zip": "77335",
      "url": "https://www.kreweofswingtown.com/"
    },
    {
      "name": "Colette - Houston",
      "city": "Houston",
      "state": "TX",
      "zip": "77002",
      "url": "https://www.coletteclubs.com/"
    },
    {
      "name": "The Night Game",
      "city": "Houston",
      "state": "TX",
      "zip": "77002",
      "url": "https://www.thebarehideranch.com/"
    },
    {
      "name": "The Pendulum Club",
      "city": "Houston",
      "state": "TX",
      "zip": "77002",
      "url": "https://pendulum.club/"
    },
    {
      "name": "Tin Boxxx",
      "city": "Lubbock",
      "state": "TX",
      "zip": "79401",
      "url": "https://tinboxxx.com/"
    },
    {
      "name": "Barehide Ranch",
      "city": "Poolville",
      "state": "TX",
      "zip": "76085",
      "url": "https://www.thebarehideranch.com/"
    },
    {
      "name": "Club Eden - San Antonio",
      "city": "San Antonio",
      "state": "TX",
      "zip": "78205",
      "url": "https://edenclubs.co/"
    },
    {
      "name": "Colette - San Antonio",
      "city": "San Antonio",
      "state": "TX",
      "zip": "78205",
      "url": "https://www.coletteclubs.com/"
    },
    {
      "name": "Castaways Travel",
      "city": "Spring",
      "state": "TX",
      "zip": "77373",
      "url": "https://castawaystravel.com/"
    },
    {
      "name": "OTR4U",
      "city": "Wills Point",
      "state": "TX",
      "zip": "75169",
      "url": "https://otr4u.fun/"
    }
  ],
  "Utah": [],
  "Vermont": [],
  "Virginia": [
    {
      "name": "The Upside Down Pineapple Club",
      "city": "Manassas",
      "state": "VA",
      "zip": "20110",
      "url": "https://upsidedownpineapple.club/"
    },
    {
      "name": "Virginia Friends",
      "city": "Richmond",
      "state": "VA",
      "zip": "23219",
      "url": "https://www.vafriendsonline.com/"
    },
    {
      "name": "Virginia's Secret",
      "city": "Richmond",
      "state": "VA",
      "zip": "23219",
      "url": "https://vasecret.com/"
    },
    {
      "name": "Interracial / International Couples and People Who Love Them",
      "city": "Springfield",
      "state": "VA",
      "zip": "22150",
      "url": "http://www.126044774866949457.com/"
    }
  ],
  "Washington": [
    {
      "name": "Eros",
      "city": "Redmond",
      "state": "WA",
      "zip": "98052",
      "url": "https://eros-events.org/"
    },
    {
      "name": "Couple's Cupid Lifestyle Lounge",
      "city": "Seattle",
      "state": "WA",
      "zip": "98101",
      "url": "https://www.couplescupid.org/"
    },
    {
      "name": "Sapphire",
      "city": "Seattle",
      "state": "WA",
      "zip": "98101",
      "url": "https://clubsapphire.com/"
    }
  ],
  "West Virginia": [
    {
      "name": "The Riverside Club",
      "city": "Gallipolis Ferry",
      "state": "WV",
      "zip": "25515",
      "url": "https://www.swingclubwv.com/"
    }
  ],
  "Wisconsin": [
    {
      "name": "Camp NCN",
      "city": "Black River Falls",
      "state": "WI",
      "zip": "54615",
      "url": "https://campncn.com/"
    },
    {
      "name": "Mars Shags Venus",
      "city": "Madison",
      "state": "WI",
      "zip": "53703",
      "url": "https://marsshagsvenus.com/"
    },
    {
      "name": "Jen's Social Networking",
      "city": "Milwaukee",
      "state": "WI",
      "zip": "53202",
      "url": "https://jenssocialnetworking.com/"
    }
  ],
  "Wyoming": []
}
