{
  "Alabama": [
    {
      "name": "Red Chair",
      "city": "Birmingham",
      "state": "AL",
      "zip": "35203",
      "url": "https://www.theredchair.org/"
    }
  ],
  "Arizona": [
    {
      "name": "Arizona Power Exchange (Apex)",
      "city": "Phoenix",
      "state": "AZ",
      "zip": "85001",
      "url": "https://arizonapowerexchange.org/"
    },
    {
      "name": "Desert Dominion",
      "city": "Tucson",
      "state": "AZ",
      "zip": "85701",
      "url": "https://www.desertdominion.org/"
    }
  ],
  "California": [
    {
      "name": "Society of Janus",
      "city": "San Francisco",
      "state": "CA",
      "zip": "94102",
      "url": "https://soj.org/"
    },
    {
      "name": "The 15 Association",
      "city": "San Francisco",
      "state": "CA",
      "zip": "94110",
      "url": "https://the15association.org/"
    },
    {
      "name": "The Exiles",
      "city": "San Francisco",
      "state": "CA",
      "zip": "94103",
      "url": "https://theexiles.org/"
    },
    {
      "name": "Threshold",
      "city": "Los Angeles",
      "state": "CA",
      "zip": "90015",
      "url": "https://thresholdla.org/"
    }
  ],
  "Colorado": [
    {
      "name": "Denver Sanctuary",
      "city": "Denver",
      "state": "CO",
      "zip": "80202",
      "url": "https://www.denversanctuary.com/"
    }
  ],
  "D.C.": [
    {
      "name": "Black Rose",
      "city": "D.C.",
      "state": "DC",
      "zip": "20002",
      "url": "https://br.org/"
    },
    {
      "name": "Crucible",
      "city": "D.C.",
      "state": "DC",
      "zip": "20002",
      "url": "https://the-crucible.com/"
    },
    {
      "name": "Special Interest Group Menâ€™s Association (SigMa)",
      "city": "Baltimore/D.C.",
      "state": "DC",
      "zip": "20002",
      "url": ""
    }
  ],
  "Florida": [
    {
      "name": "Club SwInkster",
      "city": "Kissimmee",
      "state": "FL",
      "zip": "34741",
      "url": "https://www.secretsfl.com/club-swinkster"
    },
    {
      "name": "Panhandle Alternative Lifestyles Society (PALS)",
      "city": "Pensacola",
      "state": "FL",
      "zip": "32501",
      "url": ""
    },
    {
      "name": "The Woodshed",
      "city": "Orlando",
      "state": "FL",
      "zip": "32801",
      "url": "https://www.thewoodshedorlando.com/"
    }
  ],
  "Illinois": [
    {
      "name": "Galleria Domain",
      "city": "Chicago",
      "state": "IL",
      "zip": "60606",
      "url": "https://galleriadomain.org/"
    },
    {
      "name": "The Chicago Rose Club",
      "city": "Chicago",
      "state": "IL",
      "zip": "60601",
      "url": "https://www.thechicagoroseclub.org/"
    }
  ],
  "Kansas": [
    {
      "name": "Dungeons Dungeon IX",
      "city": "Kansas City",
      "state": "KS",
      "zip": "66101",
      "url": "https://www.kcpioneers.org/"
    }
  ],
  "Massachusetts": [
    {
      "name": "New England Dungeon Society (NE-DS)",
      "city": "Boston",
      "state": "MA",
      "zip": "02108",
      "url": "https://www.ne-ds.org/"
    }
  ],
  "Maryland": [
    {
      "name": "Baltimore Educational and Social Society (BESS)",
      "city": "Baltimore",
      "state": "MD",
      "zip": "21201",
      "url": ""
    },
    {
      "name": "Dark Odyssey",
      "city": "Baltimore",
      "state": "MD",
      "zip": "21201",
      "url": "https://darkodyssey.com/"
    },
    {
      "name": "Camp Crucible",
      "city": "Northern Maryland",
      "state": "MD",
      "zip": "20878",
      "url": "https://www.campcrucible.com/"
    }
  ],
  "North Carolina": [
    {
      "name": "Charlotte Area Power Exchange (CAPEX)",
      "city": "Charlotte",
      "state": "NC",
      "zip": "28202",
      "url": ""
    }
  ],
  "New York": [
    {
      "name": "Rochester Kink Society",
      "city": "Rochester",
      "state": "NY",
      "zip": "14604",
      "url": "https://www.rochesterkinksociety.com/"
    },
    {
      "name": "The Eulenspiegel Society (TES)",
      "city": "New York City",
      "state": "NY",
      "zip": "10010",
      "url": "https://www.tes.org/"
    }
  ],
  "Ohio": [
    {
      "name": "OhioSMART",
      "city": "Cleveland",
      "state": "OH",
      "zip": "44113",
      "url": "https://ohiosmart.org/"
    }
  ],
  "Oregon": [
    {
      "name": "Portland Leather Alliance",
      "city": "Portland",
      "state": "OR",
      "zip": "97201",
      "url": "https://www.portlandleather.org/"
    }
  ],
  "Tennessee": [
    {
      "name": "The Mark",
      "city": "Nashville",
      "state": "TN",
      "zip": "37203",
      "url": "https://themarkbycpi.org/"
    }
  ],
  "Texas": [
    {
      "name": "DFW Dungeon",
      "city": "Dallas",
      "state": "TX",
      "zip": "75201",
      "url": "https://dfwdungeon.com/"
    },
    {
      "name": "Infliction Hall",
      "city": "Euless",
      "state": "TX",
      "zip": "76039",
      "url": "https://members.inflictionhall.com/"
    }
  ],
  "Virginia": [
    {
      "name": "Charlottesville Underground Fetish Fellowship (CUFF)",
      "city": "Charlottesville",
      "state": "VA",
      "zip": "22903",
      "url": ""
    }
  ]
}
